CCSDS_OMM_VERS,COMMENT,CREATION_DATE,ORIGINATOR,OBJECT_NAME,OBJECT_ID,CENTER_NAME,REF_FRAME,TIME_SYSTEM,MEAN_ELEMENT_THEORY,EPOCH,MEAN_MOTION,ECCENTRICITY,INCLINATION,RA_OF_ASC_NODE,ARG_OF_PERICENTER,MEAN_ANOMALY,EPHEMERIS_TYPE,CLASSIFICATION_TYPE,NORAD_CAT_ID,ELEMENT_SET_NO,REV_AT_EPOCH,BSTAR,MEAN_MOTION_DOT,MEAN_MOTION_DDOT,SEMIMAJOR_AXIS,PERIOD,APOAPSIS,PERIAPSIS,OBJECT_TYPE,RCS_SIZE,COUNTRY_CODE,LAUNCH_DATE,SITE,DECAY_DATE,FILE,GP_ID,TLE_LINE0,TLE_LINE1,TLE_LINE2
"2.0","GENERATED VIA SPACE-TRACK.ORG API","2014-06-25T15:14:02","18 SPCS","PAYLOAD C","2013-037C","EARTH","TEME","UTC","SGP4","2014-06-25T11:45:00.424799","14.93966205","0.00326020","97.6799","192.0967","346.9730","13.0643","0","U","39210","999","5076","-0.00002062400000","-0.00000280","0.0000000000000","6963.724","96.387","608.292","562.886","PAYLOAD","LARGE","PRC","2013-07-19","TSC","","1703747","96284379","0 PAYLOAD C","1 39210U 13037C   14176.48958825 -.00000280  00000-0 -20624-4 0  9997","2 39210 097.6799 192.0967 0032602 346.9730 013.0643 14.93966205 50763"
"2.0","GENERATED VIA SPACE-TRACK.ORG API","2014-06-25T13:06:29","18 SPCS","PAYLOAD B","2013-037B","EARTH","TEME","UTC","SGP4","2014-06-25T12:08:14.556192","14.67536324","0.00051570","98.0381","193.1893","21.9501","338.1914","0","U","39209","999","4993","0.00004503500000","0.00000208","0.0000000000000","7047.085","98.123","672.584","665.316","PAYLOAD","LARGE","PRC","2013-07-19","TSC","","1703646","96282113","0 PAYLOAD B","1 39209U 13037B   14176.50572403  .00000208  00000-0  45035-4 0  9993","2 39209 098.0381 193.1893 0005157 021.9501 338.1914 14.67536324 49939"
"2.0","GENERATED VIA SPACE-TRACK.ORG API","2014-06-25T22:27:58","18 SPCS","PAYLOAD A","2013-037A","EARTH","TEME","UTC","SGP4","2014-06-25T19:45:06.764543","14.68006931","0.00096580","98.0390","193.8706","19.6271","340.5312","0","U","39208","999","5001","-0.00005612500000","-0.00000370","0.0000000000000","7045.579","98.092","674.249","660.639","PAYLOAD","LARGE","PRC","2013-07-19","TSC","","1703845","96285255","0 PAYLOAD A","1 39208U 13037A   14176.82299496 -.00000370  00000-0 -56125-4 0  9999","2 39208 098.0390 193.8706 0009658 019.6271 340.5312 14.68006931 50013"
"2.0","GENERATED VIA SPACE-TRACK.ORG API","2014-06-25T23:19:32","18 SPCS","PAYLOAD C","2013-037C","EARTH","TEME","UTC","SGP4","2014-06-25T19:47:14.608031","14.93964585","0.00326090","97.6795","192.4239","345.7125","14.3148","0","U","39210","999","5081","-0.00004983100000","-0.00000594","0.0000000000000","6963.729","96.387","608.302","562.886","PAYLOAD","LARGE","PRC","2013-07-19","TSC","","1703924","96287159","0 PAYLOAD C","1 39210U 13037C   14176.82447463 -.00000594  00000-0 -49831-4 0  9995","2 39210 097.6795 192.4239 0032609 345.7125 014.3148 14.93964585 50816"
"2.0","GENERATED VIA SPACE-TRACK.ORG API","2014-06-25T23:18:33","18 SPCS","PAYLOAD B","2013-037B","EARTH","TEME","UTC","SGP4","2014-06-25T20:19:09.325343","14.67535528","0.00050650","98.0377","193.5239","20.8293","339.3103","0","U","39209","999","4998","0.00000712920000","-0.00000007","0.0000000000000","7047.088","98.123","672.522","665.383","PAYLOAD","LARGE","PRC","2013-07-19","TSC","","1703923","96287121","0 PAYLOAD B","1 39209U 13037B   14176.84663571 -.00000007  00000-0  71292-5 0  9990","2 39209 098.0377 193.5239 0005065 020.8293 339.3103 14.67535528 49989"
"2.0","GENERATED VIA SPACE-TRACK.ORG API","2014-06-26T06:27:53","18 SPCS","PAYLOAD A","2013-037A","EARTH","TEME","UTC","SGP4","2014-06-26T02:17:42.800928","14.68009087","0.00093810","98.0385","194.1387","18.4839","341.6755","0","U","39208","999","5005","0.00000460480000","-0.00000022","0.0000000000000","7045.572","98.092","674.046","660.828","PAYLOAD","LARGE","PRC","2013-07-19","TSC","","1704037","96288055","0 PAYLOAD A","1 39208U 13037A   14177.09563427 -.00000022  00000-0  46048-5 0  9994","2 39208 098.0385 194.1387 0009381 018.4839 341.6755 14.68009087 50058"
"2.0","GENERATED VIA SPACE-TRACK.ORG API","2014-06-26T07:24:53","18 SPCS","PAYLOAD C","2013-037C","EARTH","TEME","UTC","SGP4","2014-06-26T03:49:28.795584","14.93964791","0.00325910","97.6795","192.7513","344.5780","15.4453","0","U","39210","999","5086","-0.00004094100000","-0.00000499","0.0000000000000","6963.729","96.387","608.289","562.898","PAYLOAD","LARGE","PRC","2013-07-19","TSC","","1704123","96290099","0 PAYLOAD C","1 39210U 13037C   14177.15936106 -.00000499  00000-0 -40941-4 0  9996","2 39210 097.6795 192.7513 0032591 344.5780 015.4453 14.93964791 50863"
"2.0","GENERATED VIA SPACE-TRACK.ORG API","2014-06-26T07:22:54","18 SPCS","PAYLOAD B","2013-037B","EARTH","TEME","UTC","SGP4","2014-06-26T04:30:04.083264","14.67536278","0.00051060","98.0376","193.8586","19.9651","340.1755","0","U","39209","999","5003","0.00003403400000","0.00000145","0.0000000000000","7047.085","98.123","672.548","665.352","PAYLOAD","LARGE","PRC","2013-07-19","TSC","","1704121","96290060","0 PAYLOAD B","1 39209U 13037B   14177.18754726  .00000145  00000-0  34034-4 0  9995","2 39209 098.0376 193.8586 0005106 019.9651 340.1755 14.67536278 50033"
"2.0","GENERATED VIA SPACE-TRACK.ORG API","2014-06-26T11:26:37","18 SPCS","PAYLOAD C","2013-037C","EARTH","TEME","UTC","SGP4","2014-06-26T07:02:22.451423","14.93965313","0.00325640","97.6800","192.8831","344.2216","15.8002","0","U","39210","999","5088","-0.00002702000000","-0.00000349","0.0000000000000","6963.727","96.387","608.269","562.915","PAYLOAD","LARGE","PRC","2013-07-19","TSC","","1704158","96290884","0 PAYLOAD C","1 39210U 13037C   14177.29331541 -.00000349  00000-0 -27020-4 0  9990","2 39210 097.6800 192.8831 0032564 344.2216 015.8002 14.93965313 50882"
"2.0","GENERATED VIA SPACE-TRACK.ORG API","2014-06-26T11:10:29","18 SPCS","PAYLOAD A","2013-037A","EARTH","TEME","UTC","SGP4","2014-06-26T07:12:09.870335","14.68010118","0.00094630","98.0388","194.3404","17.6989","342.4561","0","U","39208","999","5008","0.00005018100000","0.00000240","0.0000000000000","7045.569","98.091","674.101","660.767","PAYLOAD","LARGE","PRC","2013-07-19","TSC","","1704137","96290358","0 PAYLOAD A","1 39208U 13037A   14177.30011424  .00000240  00000-0  50181-4 0  9996","2 39208 098.0388 194.3404 0009463 017.6989 342.4561 14.68010118 50085"
"2.0","GENERATED VIA SPACE-TRACK.ORG API","2014-06-26T11:26:25","18 SPCS","PAYLOAD B","2013-037B","EARTH","TEME","UTC","SGP4","2014-06-26T07:46:25.976927","14.67536627","0.00050860","98.0376","193.9931","18.9998","341.1404","0","U","39209","999","5005","0.00005051100000","0.00000239","0.0000000000000","7047.084","98.123","672.533","665.365","PAYLOAD","LARGE","PRC","2013-07-19","TSC","","1704157","96290871","0 PAYLOAD B","1 39209U 13037B   14177.32391177  .00000239  00000-0  50511-4 0  9990","2 39209 098.0376 193.9931 0005086 018.9998 341.1404 14.67536627 50050"
"2.0","GENERATED VIA SPACE-TRACK.ORG API","2014-06-26T21:11:09","18 SPCS","PAYLOAD C","2013-037C","EARTH","TEME","UTC","SGP4","2014-06-26T15:04:36.557759","14.93965459","0.00325400","97.6797","193.2105","343.0043","17.0077","0","U","39210","999","5093","-0.00001852500000","-0.00000258","0.0000000000000","6963.727","96.387","608.252","562.932","PAYLOAD","LARGE","PRC","2013-07-19","TSC","","1704410","96294576","0 PAYLOAD C","1 39210U 13037C   14177.62820090 -.00000258  00000-0 -18525-4 0  9998","2 39210 097.6797 193.2105 0032540 343.0043 017.0077 14.93965459 50938"
"2.0","GENERATED VIA SPACE-TRACK.ORG API","2014-06-26T20:16:14","18 SPCS","PAYLOAD A","2013-037A","EARTH","TEME","UTC","SGP4","2014-06-26T15:22:55.043040","14.68010646","0.00094660","98.0389","194.6753","16.4425","343.7078","0","U","39208","999","5013","0.00006379800000","0.00000318","0.0000000000000","7045.567","98.091","674.101","660.763","PAYLOAD","LARGE","PRC","2013-07-19","TSC","","1704305","96292617","0 PAYLOAD A","1 39208U 13037A   14177.64091485  .00000318  00000-0  63798-4 0  9992","2 39208 098.0389 194.6753 0009466 016.4425 343.7078 14.68010646 50130"
"2.0","GENERATED VIA SPACE-TRACK.ORG API","2014-06-26T21:09:57","18 SPCS","PAYLOAD B","2013-037B","EARTH","TEME","UTC","SGP4","2014-06-26T15:57:20.679551","14.67536726","0.00050900","98.0377","194.3277","17.5961","342.5401","0","U","39209","999","5010","0.00004984700000","0.00000235","0.0000000000000","7047.084","98.123","672.536","665.362","PAYLOAD","LARGE","PRC","2013-07-19","TSC","","1704409","96294542","0 PAYLOAD B","1 39209U 13037B   14177.66482268  .00000235  00000-0  49847-4 0  9995","2 39209 098.0377 194.3277 0005090 017.5961 342.5401 14.67536726 50107"
"2.0","GENERATED VIA SPACE-TRACK.ORG API","2014-06-26T17:12:41","18 SPCS","PAYLOAD B","2013-037B","EARTH","TEME","UTC","SGP4","2014-06-26T15:57:21.458015","14.67536555","0.00049930","98.0398","194.3283","14.8187","345.3661","0","U","39209","999","5010","0.00003114100000","0.00000177","0.0000000000000","7047.084","98.123","672.468","665.431","PAYLOAD","LARGE","PRC","2013-07-19","TSC","","1704237","96291735","0 PAYLOAD B","1 39209U 13037B   14177.66483169  .00000177  00000-0  31141-4 0  9999","2 39209 098.0398 194.3283 0004993 014.8187 345.3661 14.67536555 50107"
"2.0","GENERATED VIA SPACE-TRACK.ORG API","2014-06-26T22:20:02","18 SPCS","PAYLOAD A","2013-037A","EARTH","TEME","UTC","SGP4","2014-06-26T18:39:13.142015","14.68009994","0.00094260","98.0386","194.8093","16.2055","343.9423","0","U","39208","999","5015","0.00003835300000","0.00000172","0.0000000000000","7045.569","98.091","674.075","660.793","PAYLOAD","LARGE","PRC","2013-07-19","TSC","","1704465","96295107","0 PAYLOAD A","1 39208U 13037A   14177.77723544  .00000172  00000-0  38353-4 0  9991","2 39208 098.0386 194.8093 0009426 016.2055 343.9423 14.68009994 50151"
